FENGYUN 1C DEB          
1 29996U 99025LW  17345.82982178  .00000968  00000-0  69565-3 0  9992
2 29996  99.2296 298.5040 0149032 150.3998 272.3911 13.94200939552801
